NOAA 18                 
1 28654U 05018A   26070.80661737  .00000060  00000+0  55022-4 0  9995
2 28654  98.8153 151.8842 0015256  69.8718 290.4094 14.13711419 72557
NOAA 19                 
1 33591U 09005A   26070.43423929  .00000036  00000+0  43280-4 0  9995
2 33591  98.9604 141.2081 0012831 309.3964  50.6071 14.13457132880674
SUOMI NPP               
1 37849U 11061A   26070.85777929  .00000105  00000+0  70630-4 0  9994
2 37849  98.7871  12.4432 0000556 213.6148 146.4993 14.19544236744639
NOAA 20 (JPSS-1)        
1 43013U 17073A   26070.80197984  .00000133  00000+0  84176-4 0  9996
2 43013  98.7692  11.1682 0001309 134.8067 225.3216 14.19536850430656
