[{"OBJECT_NAME":"NOAA 18","OBJECT_ID":"2005-018A","EPOCH":"2026-03-11T19:21:31.740768","MEAN_MOTION":14.13711419,"ECCENTRICITY":0.0015256,"INCLINATION":98.8153,"RA_OF_ASC_NODE":151.8842,"ARG_OF_PERICENTER":69.8718,"MEAN_ANOMALY":290.4094,"EPHEMERIS_TYPE":0,"CLASSIFICATION_TYPE":"U","NORAD_CAT_ID":28654,"ELEMENT_SET_NO":999,"REV_AT_EPOCH":7255,"BSTAR":5.5022e-5,"MEAN_MOTION_DOT":6.0e-7,"MEAN_MOTION_DDOT":0},{"OBJECT_NAME":"NOAA 19","OBJECT_ID":"2009-005A","EPOCH":"2026-03-11T10:25:18.274656","MEAN_MOTION":14.13457132,"ECCENTRICITY":0.0012831,"INCLINATION":98.9604,"RA_OF_ASC_NODE":141.2081,"ARG_OF_PERICENTER":309.3964,"MEAN_ANOMALY":50.6071,"EPHEMERIS_TYPE":0,"CLASSIFICATION_TYPE":"U","NORAD_CAT_ID":33591,"ELEMENT_SET_NO":999,"REV_AT_EPOCH":88067,"BSTAR":4.328e-5,"MEAN_MOTION_DOT":3.6e-7,"MEAN_MOTION_DDOT":0},{"OBJECT_NAME":"SUOMI NPP","OBJECT_ID":"2011-061A","EPOCH":"2026-03-11T20:35:12.130656","MEAN_MOTION":14.19544236,"ECCENTRICITY":5.56e-5,"INCLINATION":98.7871,"RA_OF_ASC_NODE":12.4432,"ARG_OF_PERICENTER":213.6148,"MEAN_ANOMALY":146.4993,"EPHEMERIS_TYPE":0,"CLASSIFICATION_TYPE":"U","NORAD_CAT_ID":37849,"ELEMENT_SET_NO":999,"REV_AT_EPOCH":74463,"BSTAR":7.063e-5,"MEAN_MOTION_DOT":1.05e-6,"MEAN_MOTION_DDOT":0},{"OBJECT_NAME":"NOAA 20 (JPSS-1)","OBJECT_ID":"2017-073A","EPOCH":"2026-03-11T19:14:51.058176","MEAN_MOTION":14.1953685,"ECCENTRICITY":0.0001309,"INCLINATION":98.7692,"RA_OF_ASC_NODE":11.1682,"ARG_OF_PERICENTER":134.8067,"MEAN_ANOMALY":225.3216,"EPHEMERIS_TYPE":0,"CLASSIFICATION_TYPE":"U","NORAD_CAT_ID":43013,"ELEMENT_SET_NO":999,"REV_AT_EPOCH":43065,"BSTAR":8.4176e-5,"MEAN_MOTION_DOT":1.33e-6,"MEAN_MOTION_DDOT":0}]
